ONEWEB-0159             
1 48062U 21025W   25201.89458804  .00000273  00000+0  71213-3 0  9994
2 48062  87.8957  26.0190 0001599  85.3916 274.7396 13.13468700210116
ONEWEB-0164             
1 48063U 21025X   25201.87596890  .00000251  00000+0  65224-3 0  9992
2 48063  87.8953  26.0329 0001854  90.0571 270.0770 13.13469458210094
ONEWEB-0167             
1 48064U 21025Y   25201.90391178  .00000049  00000+0  10006-3 0  9992
2 48064  87.8966  26.0584 0002167  68.7079 291.4282 13.13468872210088
ONEWEB-0166             
1 48065U 21025Z   25201.92675486 -.00000230  00000+0 -66563-3 0  9995
2 48065  87.8953  26.0080 0001618  90.8065 269.3249 13.13469780210162
ONEWEB-0151             
1 48066U 21025AA  25201.92843973 -.00000408  00000+0 -11534-2 0  9998
2 48066  87.8952  26.0308 0001892  86.3770 273.7575 13.13470005210109
ONEWEB-0170             
1 48067U 21025AB  25201.93691038 -.00000120  00000+0 -36257-3 0  9994
2 48067  87.8955  26.0344 0002284  89.5828 270.5563 13.13470146210061
ONEWEB-0168             
1 48068U 21025AC  25201.92166563 -.00000370  00000+0 -10493-2 0  9994
2 48068  87.8961  26.0189 0001784  87.3677 272.7656 13.13469961210079
ONEWEB-0173             
1 48069U 21025AD  25201.91320525 -.00000296  00000+0 -84480-3 0  9999
2 48069  87.8961  26.0289 0001773  75.1493 284.9832 13.13469132210318
